{"type": "FeatureCollection", "name": "metarepo_resources.area_di_circolazione_ciclabile_r1", "crs": {"type": "name", "properties": {"name": "urn:ogc:def:crs:OGC:1.3:CRS84"}}, "features": [{"type": "Feature", "properties": {"id": 9, "id_area_stradale": null, "ac_cic_con": "01", "ac_cic_pos": null, "ac_cic_fon": null, "ac_cic_sed": null, "ac_cic_liv": null, "sopra_a": null, "origine_geometria": null, "codice_ctr": null, "periodizzazione": null}, "geometry": {"type": "Polygon", "coordinates": [[[10.539908074998595, 43.088359926949416], [10.539900249709278, 43.088219200986664], [10.539880066628026, 43.08787998982943], [10.53985797295626, 43.0876972925112], [10.539828400421468, 43.08746909023545], [10.5398005255968, 43.08725210623915], [10.539778113099272, 43.087115982818844], [10.539741140110905, 43.087105407146105], [10.539787862148884, 43.08745532682684], [10.539797106126512, 43.08752498686493], [10.539849610733166, 43.08788482284412], [10.53986842429509, 43.088125801765905], [10.539870693004215, 43.088162419783544], [10.539868043257561, 43.08821844037109], [10.539864282669145, 43.08829397257211], [10.539854686013744, 43.088362086110465], [10.539854686013744, 43.088362086110465], [10.53989147120745, 43.08836411238686], [10.539908074998595, 43.088359926949416]]]}}, {"type": "Feature", "properties": {"id": 10, "id_area_stradale": null, "ac_cic_con": "01", "ac_cic_pos": null, "ac_cic_fon": null, "ac_cic_sed": null, "ac_cic_liv": null, "sopra_a": null, "origine_geometria": null, "codice_ctr": null, "periodizzazione": null}, "geometry": {"type": "Polygon", "coordinates": [[[10.539737915328953, 43.087010992711754], [10.539761587703937, 43.08699190518202], [10.53975796026669, 43.0869590675131], [10.539736887420881, 43.08680954226846], [10.539724706129983, 43.086715157530655], [10.539696491325714, 43.086512565892384], [10.539670219048443, 43.08633152985972], [10.539648365188341, 43.08615891406924], [10.539629457040212, 43.086019914748], [10.539614189477346, 43.08591428062089], [10.53958898525318, 43.08571987004551], [10.539545040711209, 43.085393137918565], [10.539524647582505, 43.08527882340802], [10.539505557059586, 43.08512571528053], [10.539496232021223, 43.085089357287764], [10.53946942987589, 43.085090870740224], [10.539493398127838, 43.08524344574647], [10.539497803742604, 43.08527220107316], [10.539524975639461, 43.08545949057517], [10.539542249115716, 43.08559000441032], [10.53955164871685, 43.08566119407254], [10.539567412426164, 43.08578047251067], [10.539570295875034, 43.085802404844834], [10.53958529006189, 43.08591548048405], [10.539611707759867, 43.086111874697174], [10.539625261981923, 43.086206690442324], [10.53962705359153, 43.0862193627668], [10.53964552185027, 43.08634850981049], [10.539676713029902, 43.086568701851355], [10.539704478980772, 43.08676985029691], [10.539720069731185, 43.086882197508245], [10.539737915328953, 43.087010992711754]]]}}, {"type": "Feature", "properties": {"id": 11, "id_area_stradale": null, "ac_cic_con": "01", "ac_cic_pos": null, "ac_cic_fon": null, "ac_cic_sed": null, "ac_cic_liv": null, "sopra_a": null, "origine_geometria": null, "codice_ctr": null, "periodizzazione": null}, "geometry": {"type": "Polygon", "coordinates": [[[10.53944946974851, 43.08498551574257], [10.53944946974851, 43.08498551574257], [10.539491133949133, 43.08498001972599], [10.539491068407017, 43.08492042928318], [10.539470107216662, 43.084767028360055], [10.539448936786583, 43.08460526654808], [10.539404555184591, 43.084314179675154], [10.539345991031993, 43.083912464570055], [10.539311775144, 43.08390691059255], [10.539332894231107, 43.08406348598868], [10.539342093869305, 43.084131616825225], [10.539345422803413, 43.08415633459319], [10.539358985658158, 43.08425673311448], [10.539380863298353, 43.08441906121738], [10.539402568671504, 43.084579410625274], [10.539413114931023, 43.08465715821643], [10.5394333602386, 43.0848082525545], [10.539435825568916, 43.08482820951684], [10.53944946974851, 43.08498551574257]]]}}, {"type": "Feature", "properties": {"id": 13, "id_area_stradale": null, "ac_cic_con": "01", "ac_cic_pos": null, "ac_cic_fon": null, "ac_cic_sed": null, "ac_cic_liv": null, "sopra_a": null, "origine_geometria": null, "codice_ctr": null, "periodizzazione": null}, "geometry": {"type": "Polygon", "coordinates": [[[10.539017113002423, 43.08172015323815], [10.539017113002423, 43.08172015323815], [10.53902661398273, 43.08166293650896], [10.539031307599078, 43.08161487904482], [10.538984609472926, 43.081262398867736], [10.53896618056404, 43.08112329514309], [10.538959114304175, 43.081071878488025], [10.538875762950973, 43.080465376702826], [10.538757829416237, 43.0796061257546], [10.53865783227819, 43.078889175751286], [10.538590754047558, 43.07882011212162], [10.538550388917871, 43.07879751307589], [10.538496243284765, 43.078793648700085], [10.538477143222822, 43.07879615662551], [10.538478260611905, 43.078811359328206], [10.538596543344902, 43.07884038461463], [10.538617874932173, 43.07886323955568], [10.538635533428922, 43.07893566901788], [10.538669750135394, 43.079183825148014], [10.538742775940426, 43.07975562393345], [10.538808814638944, 43.080175789588665], [10.538919368589411, 43.081034599367385], [10.53901211759853, 43.08166781384288], [10.539017113002423, 43.08172015323815]]]}}, {"type": "Feature", "properties": {"id": 14, "id_area_stradale": null, "ac_cic_con": "01", "ac_cic_pos": null, "ac_cic_fon": null, "ac_cic_sed": null, "ac_cic_liv": null, "sopra_a": null, "origine_geometria": null, "codice_ctr": null, "periodizzazione": null}, "geometry": {"type": "Polygon", "coordinates": [[[10.538591581203601, 43.07868134056156], [10.538625643540732, 43.0786533286011], [10.538625643540732, 43.0786533286011], [10.538516809437983, 43.07785797730206], [10.538499534877888, 43.07773378756839], [10.538349363401963, 43.076654155835016], [10.538210109970898, 43.0756490460957], [10.538135284658996, 43.075101408521355], [10.538110575543609, 43.074920563048956], [10.537981016100034, 43.07398844909002], [10.537888741013498, 43.07334369123538], [10.537856611071499, 43.0731787088942], [10.537851851718544, 43.07322415593203], [10.537869626618097, 43.07335538392158], [10.537961772402284, 43.07401949389414], [10.53796673271922, 43.07405394538028], [10.537975963747128, 43.07411806178095], [10.538049030295115, 43.074625589888115], [10.538116399130812, 43.07511903568982], [10.538207576401701, 43.07577856594725], [10.538271602562634, 43.076182460971545], [10.538345109662554, 43.07672471883222], [10.53834998899248, 43.07678228251392], [10.538354150306677, 43.0767915012852], [10.53846717978655, 43.0776810743588], [10.538499992076954, 43.07795662337338], [10.53851615672327, 43.07809210495324], [10.538514069927196, 43.07812653047362], [10.5385323394868, 43.07812520430218], [10.53854370853298, 43.078206722917784], [10.538546854177197, 43.07822910200968], [10.53856453096221, 43.07835627904041], [10.538553608321063, 43.078405770944045], [10.538583302597578, 43.07862049092041], [10.538581762147874, 43.07866202270464], [10.538549202628252, 43.07869118504145], [10.538591581203601, 43.07868134056156]]]}}, {"type": "Feature", "properties": {"id": 15, "id_area_stradale": null, "ac_cic_con": "01", "ac_cic_pos": null, "ac_cic_fon": null, "ac_cic_sed": null, "ac_cic_liv": null, "sopra_a": null, "origine_geometria": null, "codice_ctr": null, "periodizzazione": null}, "geometry": {"type": "Polygon", "coordinates": [[[10.537703827636326, 43.072231130834446], [10.537722096899266, 43.07222981290272], [10.537723945748455, 43.07217603071176], [10.53769261092066, 43.07189541878413], [10.537459463569718, 43.07022369896842], [10.537210811847585, 43.06846178041497], [10.537134042313522, 43.06791587299645], [10.537030479967859, 43.067139513175476], [10.5369270152875, 43.06635923894454], [10.536814423071691, 43.06554916728955], [10.536792871614175, 43.06555170785093], [10.536828098608924, 43.0658114674569], [10.537051696670893, 43.06750555941873], [10.53710321050559, 43.06787144427778], [10.537115463605355, 43.067978434286466], [10.53713169150315, 43.068092124343146], [10.537263638346708, 43.069014676357355], [10.537359389114698, 43.06968413803321], [10.537573432610769, 43.07116179600241], [10.537703827636326, 43.072231130834446]]]}}, {"type": "Feature", "properties": {"id": 16, "id_area_stradale": null, "ac_cic_con": "01", "ac_cic_pos": null, "ac_cic_fon": null, "ac_cic_sed": null, "ac_cic_liv": null, "sopra_a": null, "origine_geometria": null, "codice_ctr": null, "periodizzazione": null}, "geometry": {"type": "Polygon", "coordinates": [[[10.537703827636326, 43.072231130834446], [10.537722096899259, 43.07222981290274], [10.537723945748455, 43.07217603071176], [10.53769261092066, 43.07189541878413], [10.537459463569718, 43.07022369896842], [10.537210811847585, 43.06846178041497], [10.537134042313522, 43.06791587299645], [10.537030479967859, 43.067139513175476], [10.5369270152875, 43.06635923894454], [10.536814423071691, 43.06554916728955], [10.536792871614175, 43.06555170785093], [10.536828098608924, 43.0658114674569], [10.537051696670893, 43.06750555941873], [10.53710321050559, 43.06787144427778], [10.537115463605355, 43.067978434286466], [10.53713169150315, 43.068092124343146], [10.537263638346708, 43.069014676357355], [10.537359389114698, 43.06968413803321], [10.537573432610769, 43.07116179600241], [10.537703827636326, 43.072231130834446]]]}}, {"type": "Feature", "properties": {"id": 17, "id_area_stradale": null, "ac_cic_con": "01", "ac_cic_pos": null, "ac_cic_fon": null, "ac_cic_sed": null, "ac_cic_liv": null, "sopra_a": null, "origine_geometria": null, "codice_ctr": null, "periodizzazione": null}, "geometry": {"type": "Polygon", "coordinates": [[[10.536789926894011, 43.06551248737886], [10.536808757143092, 43.06550917294803], [10.536808757143092, 43.06550917294803], [10.536750436198576, 43.06507710542401], [10.536609447783995, 43.06406028626954], [10.536606784069761, 43.064041075001626], [10.536600596620678, 43.063996772721595], [10.536554590390773, 43.06366736481014], [10.536523582967366, 43.06365921956642], [10.536557860106146, 43.063891715379164], [10.536728764381476, 43.06507973763535], [10.536789926894011, 43.06551248737886]]]}}, {"type": "Feature", "properties": {"id": 12, "id_area_stradale": null, "ac_cic_con": "01", "ac_cic_pos": null, "ac_cic_fon": null, "ac_cic_sed": null, "ac_cic_liv": null, "sopra_a": null, "origine_geometria": null, "codice_ctr": null, "periodizzazione": null}, "geometry": {"type": "Polygon", "coordinates": [[[10.539296180473498, 43.08380906065002], [10.539327652574665, 43.0838058524312], [10.539333355393266, 43.08379964278653], [10.539318979525587, 43.0836934296802], [10.539311734049253, 43.08363802404633], [10.53929200669029, 43.08349355204751], [10.539268267268836, 43.08331417763223], [10.539252586908024, 43.08318927658687], [10.539211858881727, 43.0828995857839], [10.539200737680202, 43.082823073624084], [10.539157473472766, 43.082532340896584], [10.539127507265109, 43.08232498328264], [10.539091782722352, 43.082313180219394], [10.539119559097138, 43.08251000662138], [10.539147337908869, 43.08270692302377], [10.5391787053612, 43.082934316619045], [10.53921698074919, 43.08321681526041], [10.539233938446003, 43.08333967956024], [10.53923496936107, 43.08334650916237], [10.539248322842028, 43.0834382661456], [10.539252496097381, 43.08346756488993], [10.539283719063324, 43.08369405991384], [10.539296180473498, 43.08380906065002]]]}}, {"type": "Feature", "properties": {"id": 18, "id_area_stradale": null, "ac_cic_con": "01", "ac_cic_pos": null, "ac_cic_fon": null, "ac_cic_sed": null, "ac_cic_liv": null, "sopra_a": null, "origine_geometria": null, "codice_ctr": null, "periodizzazione": null}, "geometry": {"type": "Polygon", "coordinates": [[[10.536548390179558, 43.063620714217095], [10.536548390179558, 43.063620714217095], [10.536369561447176, 43.062355988581075], [10.536278729353995, 43.061723284402746], [10.536243025462237, 43.06146389102131], [10.536246708331161, 43.06146384158264], [10.535399449518787, 43.05585192852432], [10.534935296111032, 43.05261244389542], [10.534899442081084, 43.05231208073219], [10.534842242737202, 43.05193861623289], [10.534792367502524, 43.05166680557169], [10.534737528158937, 43.05133869257445], [10.534675054456377, 43.051039226531145], [10.534588682901013, 43.05072675406247], [10.534518744808212, 43.050452871048456], [10.534066049952354, 43.0490045768644], [10.533381932102989, 43.046826191180216], [10.532742601485953, 43.044713897054784], [10.532023119769251, 43.042348741052784], [10.53106921352243, 43.03920808547718], [10.529946957226567, 43.035660860296574], [10.529856355245029, 43.035368880458414], [10.529254688514875, 43.033428588750425], [10.528951538265654, 43.0324510422227], [10.528036476365429, 43.02959159211211], [10.528007965713998, 43.02950606843518], [10.528004382643317, 43.02949522065053], [10.527979455144985, 43.02942054474873], [10.52784436805013, 43.02899201610749], [10.527719235942824, 43.028628277900445], [10.527580810286397, 43.0283173950568], [10.527124733900827, 43.02745660303152], [10.526572536937463, 43.026460761650924], [10.525242453904848, 43.02395665174954], [10.52520976764033, 43.02390053810675], [10.524021827043399, 43.02186438153567], [10.5232359152021, 43.02045525929597], [10.523083414701283, 43.020174002173896], [10.52300330559158, 43.02000632084852], [10.52295394176571, 43.019890907627065], [10.522911384980333, 43.01978774019376], [10.522872387688212, 43.01965976255923], [10.522844582628649, 43.019562521982735], [10.52282775756779, 43.01947765178668], [10.522651259448343, 43.01816960085416], [10.522623148285053, 43.01816450024518], [10.522672581888527, 43.01848553041077], [10.522712414965444, 43.01881499345815], [10.522759512108701, 43.01922464334975], [10.522807702697818, 43.019495305106524], [10.522858860375614, 43.019702807898675], [10.523000379120761, 43.020055279631556], [10.523165518695443, 43.02038639699865], [10.523382706777067, 43.02077772606427], [10.523528310593168, 43.02102051419871], [10.523697543873146, 43.02133385850538], [10.523949737781633, 43.021797806037405], [10.524051349443132, 43.021970308277396], [10.524176523742693, 43.02218014681948], [10.524274804280859, 43.022339958589434], [10.524386154936597, 43.022540014764914], [10.524538967271349, 43.02279931588961], [10.524672785554198, 43.02302288068801], [10.524783960717038, 43.02321574095949], [10.524883272903379, 43.02338661201018], [10.525003117537025, 43.02359430588027], [10.525122496333516, 43.023813633083286], [10.525185877941745, 43.02393110416775], [10.525314445257434, 43.024159892859366], [10.525476413706905, 43.0244533987148], [10.525604601419081, 43.024693094085784], [10.525721789915165, 43.02491521820591], [10.525783484340831, 43.0250295609606], [10.52589103182166, 43.02522800522878], [10.525962259586928, 43.02536159953863], [10.526030470039235, 43.02549523403206], [10.526087831460117, 43.02558693355183], [10.526145864909756, 43.025705754342205], [10.526232209216644, 43.02587070658912], [10.526316139912923, 43.02602960048795], [10.526395229139826, 43.02617582427644], [10.526478543419913, 43.02634026305477], [10.526547949514192, 43.02646114665513], [10.526630386740546, 43.02662061390282], [10.526697653646286, 43.0267465090487], [10.526787663338771, 43.0269069825183], [10.526876877928217, 43.02706580548468], [10.527237335328774, 43.027754755400025], [10.527542656262026, 43.028319862322874], [10.52769409876559, 43.02864451128065], [10.52782088004422, 43.02900935408169], [10.52794205220259, 43.029360983318554], [10.528038492734177, 43.02968913443202], [10.52813841753532, 43.029975159364575], [10.52825325653566, 43.030345144156236], [10.528383709160577, 43.030766412383436], [10.52846236014674, 43.03101617830315], [10.528548049332075, 43.031275816366175], [10.528644921172667, 43.0315906728151], [10.52876356639574, 43.031961713502284], [10.528865585698238, 43.032301416484934], [10.528933058399822, 43.03249596351987], [10.529037892720423, 43.032857775833875], [10.52927102497976, 43.03361430726464], [10.529436547591953, 43.03414030424329], [10.52967388722188, 43.034883490179155], [10.529675786850648, 43.03488976252909], [10.529680435936015, 43.03488885344484], [10.529680435951033, 43.03488885345122], [10.529713378395904, 43.034979630127346], [10.529713378386854, 43.03497963013844], [10.529703518950429, 43.03498133049179], [10.529716641757384, 43.03502466027442], [10.529826086594946, 43.035376569573636], [10.529920811416389, 43.03566732014], [10.53014312568753, 43.03639318747645], [10.53023002659277, 43.036700977786985], [10.530323813672371, 43.03698209940486], [10.530460006059409, 43.03745090428331], [10.530576642594635, 43.0378009298012], [10.530728028596803, 43.03830385910631], [10.530842457524432, 43.038625676269504], [10.53095141532458, 43.038970267265015], [10.531048296540884, 43.03925411516926], [10.53114144946522, 43.039570126149584], [10.531251878626687, 43.039913036081444], [10.531345815801599, 43.04023014371944], [10.531419677850804, 43.040498796280865], [10.531494457798614, 43.040743628371644], [10.531594544517718, 43.04106508288422], [10.531721340552807, 43.04148916379814], [10.531812988675874, 43.041774741992946], [10.532041099437084, 43.042508632986525], [10.532240052161313, 43.04316263062512], [10.532458801176128, 43.043883911365214], [10.5327171128546, 43.04473865158359], [10.532928926772916, 43.04542348141931], [10.533059215260153, 43.0458657850701], [10.53315963624516, 43.04619996800033], [10.533240126840406, 43.04646133249611], [10.53333077700514, 43.046766854948615], [10.533394631653053, 43.046966430398754], [10.533473311669983, 43.04721563806491], [10.533516125620045, 43.04735846665602], [10.533632927667329, 43.047743921510786], [10.533749083095495, 43.04810336208212], [10.533848219256551, 43.04841596810185], [10.533958243248799, 43.048771614857074], [10.534068503064002, 43.04913667082363], [10.534174107880398, 43.04946635376462], [10.534301060656125, 43.049864959947385], [10.534369274936326, 43.05008773070377], [10.534504108634389, 43.050499519189415], [10.53454757601218, 43.05066836133948], [10.534647359786485, 43.05103687915023], [10.53471222577962, 43.051337209243805], [10.534809612514971, 43.05191228027637], [10.534863039546602, 43.05223823275493], [10.534903001748157, 43.05253889667293], [10.534942798740994, 43.05283291866361], [10.535012878516177, 43.053317502732135], [10.535040332661133, 43.053534779215795], [10.535105898191164, 43.05398403844595], [10.535563304607322, 43.05708483199643], [10.535823003740802, 43.05884897951494], [10.535899877623502, 43.0593877815662], [10.535944061703315, 43.059675653552404], [10.536003611763709, 43.06009509404861], [10.536062245670475, 43.06044755204444], [10.53611581753552, 43.060808936742774], [10.53617083932368, 43.06113763507993], [10.536220805405165, 43.06146418930873], [10.536228143773114, 43.06152581093173], [10.536251663084276, 43.06172330596027], [10.536260079006691, 43.06179058904914], [10.536266117286884, 43.06183551043892], [10.536275415341928, 43.061904682580774], [10.536301251531281, 43.06209688792688], [10.536319791763557, 43.06223481501965], [10.536335352654891, 43.062350577235755], [10.53634432012855, 43.062417288794045], [10.536379914815624, 43.062682086077345], [10.53643197967967, 43.063045803041646], [10.536434359791079, 43.06306242958717], [10.536442693563957, 43.06312075751922], [10.536445216678906, 43.06313819255791], [10.536488740434805, 43.06344046243063], [10.536509865381172, 43.06343862460919], [10.536518893844153, 43.063501799382266], [10.536528181555168, 43.06356389642509], [10.536512602903176, 43.06356498331527], [10.536512441287714, 43.063567979735936], [10.536518081929145, 43.06361686197909], [10.536548390179558, 43.063620714217095]]]}}]}