{
  "type": "FeatureCollection",
  "features": [
    {
      "type": "Feature",
      "geometry": {
        "type": "Point",
        "coordinates": [
          10.54,
          43.09
        ]
      },
      "properties": {
        "id": "dae_trace_ms8o7ebu",
        "status": "pending",
        "nome": "t",
        "ubicazione": "trace test",
        "accesso": "",
        "indoor": false,
        "telegram_user_id": 0,
        "created_at": "2026-07-31T08:18:20.874Z"
      }
    },
    {
      "type": "Feature",
      "geometry": {
        "type": "Point",
        "coordinates": [
          10.5364,
          43.0901
        ]
      },
      "properties": {
        "id": "dae_live_ms8o72dy",
        "status": "pending",
        "nome": "Buoncristiani Odontoiatria",
        "ubicazione": "Presso Buoncristiani Odontoiatria",
        "accesso": "",
        "indoor": false,
        "telegram_user_id": 0,
        "created_at": "2026-07-31T08:18:05.398Z",
        "osm_url": "https://www.openstreetmap.org/?mlat=43.0901&mlon=10.5364#map=18/43.0901/10.5364",
        "github_issue_number": 58
      }
    },
    {
      "type": "Feature",
      "geometry": {
        "type": "Point",
        "coordinates": [
          10.5364,
          43.0901
        ]
      },
      "properties": {
        "id": "dae_ok_ms8o5ium",
        "status": "rejected",
        "nome": "Piazza della Vittoria",
        "ubicazione": "Piazza della Vittoria",
        "accesso": "",
        "indoor": false,
        "telegram_user_id": 0,
        "created_at": "2026-07-31T08:16:53.422Z",
        "reviewed_at": "2026-07-31T08:16:59.014Z"
      }
    },
    {
      "type": "Feature",
      "geometry": {
        "type": "Point",
        "coordinates": [
          10.5,
          43
        ]
      },
      "properties": {
        "id": "dae_manual_ms8o4syu",
        "status": "pending",
        "nome": "m",
        "ubicazione": "m",
        "accesso": "",
        "indoor": false,
        "telegram_user_id": 0,
        "created_at": "2026-07-31T08:16:19.878Z"
      }
    },
    {
      "type": "Feature",
      "geometry": {
        "type": "Point",
        "coordinates": [
          10.54,
          43.09
        ]
      },
      "properties": {
        "id": "dae_dbg_ms8o4g8q",
        "status": "pending",
        "nome": "dbg",
        "ubicazione": "dbg ubicazione",
        "accesso": "",
        "indoor": false,
        "telegram_user_id": 0,
        "created_at": "2026-07-31T08:16:03.386Z"
      }
    },
    {
      "type": "Feature",
      "geometry": {
        "type": "Point",
        "coordinates": [
          10.5364,
          43.0901
        ]
      },
      "properties": {
        "id": "dae_test_ms8o45of",
        "status": "pending",
        "nome": "Lungomare Marconi test",
        "ubicazione": "Lungomare Marconi (test)",
        "accesso": "",
        "indoor": false,
        "telegram_user_id": 0,
        "created_at": "2026-07-31T08:15:49.695Z"
      }
    },
    {
      "type": "Feature",
      "geometry": {
        "type": "Point",
        "coordinates": [
          10.54,
          43.085
        ]
      },
      "properties": {
        "id": "dae_test_ms8o28ya",
        "status": "pending",
        "nome": "Test Buoncristiani",
        "ubicazione": "Presso Buoncristiani Odontoiatria (test automatico)",
        "accesso": "",
        "indoor": false,
        "telegram_user_id": 0,
        "created_at": "2026-07-31T08:14:20.626Z",
        "osm_url": "https://www.openstreetmap.org/?mlat=43.085&mlon=10.54#map=18/43.085/10.54"
      }
    },
    {
      "type": "Feature",
      "geometry": {
        "type": "Point",
        "coordinates": [
          10.5364,
          43.0901
        ]
      },
      "properties": {
        "id": "dae_final_ms8o8sbn",
        "status": "pending",
        "nome": "Buoncristiani",
        "ubicazione": "Presso Buoncristiani Odontoiatria",
        "accesso": "",
        "indoor": false,
        "telegram_user_id": 0,
        "created_at": "2026-07-31T08:19:25.667Z"
      }
    }
  ],
  "meta": {
    "fonte": "Segnalazioni cittadine via Telegram (@DaesanvincenzoBot)",
    "ambito": "San Vincenzo (LI)",
    "n": 8,
    "nota": "Punti non ancora su OpenStreetMap; in emergenza chiama il 118.",
    "updated_at": "2026-07-31T08:19:28.695Z",
    "store": "github-issues"
  }
}
