{
  "type": "FeatureCollection",
  "features": [
    {
      "type": "Feature",
      "geometry": {
        "type": "Point",
        "coordinates": [
          10.5319584,
          43.0497074
        ]
      },
      "properties": {
        "osm_type": "node",
        "osm_id": 1906515643,
        "nome": "Made available by the bar manager.",
        "ubicazione": "Made available by the bar manager.",
        "accesso": "permissive",
        "orari": "Mo-Su 09:00-21:00",
        "operatore": "",
        "telefono": "",
        "indoor": false,
        "immagine": "",
        "osm_url": "https://www.openstreetmap.org/node/1906515643",
        "check_date": ""
      }
    },
    {
      "type": "Feature",
      "geometry": {
        "type": "Point",
        "coordinates": [
          10.541536,
          43.0951284
        ]
      },
      "properties": {
        "osm_type": "node",
        "osm_id": 9442301723,
        "nome": "Angolo Via Matteotti Via del Castelluccio",
        "ubicazione": "Angolo Via Matteotti Via del Castelluccio",
        "accesso": "",
        "orari": "",
        "operatore": "Comune di San Vincenzo",
        "telefono": "",
        "indoor": false,
        "immagine": "",
        "osm_url": "https://www.openstreetmap.org/node/9442301723",
        "check_date": ""
      }
    },
    {
      "type": "Feature",
      "geometry": {
        "type": "Point",
        "coordinates": [
          10.5458075,
          43.0939217
        ]
      },
      "properties": {
        "osm_type": "node",
        "osm_id": 9442301724,
        "nome": "Interno al campo lato dx",
        "ubicazione": "Interno al campo lato dx",
        "accesso": "",
        "orari": "",
        "operatore": "SVB Basket San Vincenzo",
        "telefono": "",
        "indoor": true,
        "immagine": "",
        "osm_url": "https://www.openstreetmap.org/node/9442301724",
        "check_date": ""
      }
    },
    {
      "type": "Feature",
      "geometry": {
        "type": "Point",
        "coordinates": [
          10.5380512,
          43.0278651
        ]
      },
      "properties": {
        "osm_type": "node",
        "osm_id": 13002308002,
        "nome": "DAE 13002308002",
        "ubicazione": "",
        "accesso": "customers",
        "orari": "",
        "operatore": "",
        "telefono": "",
        "indoor": false,
        "immagine": "",
        "osm_url": "https://www.openstreetmap.org/node/13002308002",
        "check_date": "2025-07-15"
      }
    },
    {
      "type": "Feature",
      "geometry": {
        "type": "Point",
        "coordinates": [
          10.5405006,
          43.0261495
        ]
      },
      "properties": {
        "osm_type": "node",
        "osm_id": 13005847701,
        "nome": "DAE 13005847701",
        "ubicazione": "",
        "accesso": "customers",
        "orari": "",
        "operatore": "",
        "telefono": "",
        "indoor": false,
        "immagine": "https://openaedmap.org/api/v1/photos/view/wsQCwHoS-nFGSQp5yAyfFA.webp",
        "osm_url": "https://www.openstreetmap.org/node/13005847701",
        "check_date": "2025-07-17"
      }
    },
    {
      "type": "Feature",
      "geometry": {
        "type": "Point",
        "coordinates": [
          10.5447637,
          43.0263021
        ]
      },
      "properties": {
        "osm_type": "node",
        "osm_id": 13005880201,
        "nome": "DAE 13005880201",
        "ubicazione": "",
        "accesso": "customers",
        "orari": "",
        "operatore": "",
        "telefono": "",
        "indoor": false,
        "immagine": "https://openaedmap.org/api/v1/photos/view/yWPDcYrnMbSeoIZS9T7ojg.webp",
        "osm_url": "https://www.openstreetmap.org/node/13005880201",
        "check_date": "2025-07-17"
      }
    },
    {
      "type": "Feature",
      "geometry": {
        "type": "Point",
        "coordinates": [
          10.5355628,
          43.0282584
        ]
      },
      "properties": {
        "osm_type": "node",
        "osm_id": 13013541502,
        "nome": "DAE 13013541502",
        "ubicazione": "",
        "accesso": "customers",
        "orari": "",
        "operatore": "",
        "telefono": "",
        "indoor": false,
        "immagine": "",
        "osm_url": "https://www.openstreetmap.org/node/13013541502",
        "check_date": "2025-07-20"
      }
    },
    {
      "type": "Feature",
      "geometry": {
        "type": "Point",
        "coordinates": [
          10.5388037,
          43.1003514
        ]
      },
      "properties": {
        "osm_type": "node",
        "osm_id": 13014043001,
        "nome": "Vicino alla farmacia",
        "ubicazione": "Vicino alla farmacia",
        "accesso": "yes",
        "orari": "",
        "operatore": "",
        "telefono": "",
        "indoor": false,
        "immagine": "https://openaedmap.org/api/v1/photos/view/ptm5eynyGlSZLk2prWIDRQ.webp",
        "osm_url": "https://www.openstreetmap.org/node/13014043001",
        "check_date": "2025-07-20"
      }
    }
  ],
  "meta": {
    "fonte": "OpenStreetMap / OpenAEDMap export",
    "ambito": "San Vincenzo (LI)",
    "n": 8,
    "bbox": {
      "lonMin": 10.48,
      "latMin": 43.02,
      "lonMax": 10.58,
      "latMax": 43.12
    },
    "source_url": "https://openaedmap.org/api/v1/countries/IT.geojson",
    "synced_at": "2026-07-30T10:06:46.991Z"
  }
}
