{"type": "FeatureCollection", "name": "metarepo_resources.area_di_circolazione_pedonale_r1", "crs": {"type": "name", "properties": {"name": "urn:ogc:def:crs:OGC:1.3:CRS84"}}, "features": [{"type": "Feature", "properties": {"id": 55, "id_area_stradale": 257, "ac_ped_con": "01", "ac_ped_pos": null, "ac_ped_zon": null, "ac_ped_fon": null, "ac_ped_sed": null, "ac_ped_liv": null, "sopra_a": null, "origine_geometria": null, "codice_ctr": null, "periodizzazione": null}, "geometry": {"type": "Polygon", "coordinates": [[[10.538684235438895, 43.10114234406375], [10.538694673313445, 43.10114190595313], [10.538716648479117, 43.101141070188326], [10.538695102167736, 43.101010102561155], [10.538684470279401, 43.10094547407746], [10.5386801759471, 43.100923857649285], [10.538652977343526, 43.10092663075957], [10.53865287052379, 43.10092589359412], [10.538592393130479, 43.10093259275826], [10.538364193354722, 43.10095787046144], [10.538396498862632, 43.10116896660317], [10.538402562052694, 43.10117554844803], [10.538409629402112, 43.101178064750385], [10.53842587158338, 43.10117892693279], [10.53851706200647, 43.10116464433278], [10.538549395348472, 43.10116033765474], [10.538581726431673, 43.10115594095255], [10.538672577559353, 43.101142833380585], [10.538684235438895, 43.10114234406375]]]}}, {"type": "Feature", "properties": {"id": 40, "id_area_stradale": 15, "ac_ped_con": "01", "ac_ped_pos": null, "ac_ped_zon": null, "ac_ped_fon": null, "ac_ped_sed": null, "ac_ped_liv": null, "sopra_a": null, "origine_geometria": null, "codice_ctr": null, "periodizzazione": null}, "geometry": {"type": "Polygon", "coordinates": [[[10.538593749658144, 43.10060359218173], [10.538578305889432, 43.10053350318914], [10.538586156420509, 43.10053294740741], [10.538582261581185, 43.100514810606825], [10.53857849634675, 43.100496942199634], [10.538563728445798, 43.1004273555822], [10.538812715735611, 43.10039906500518], [10.53880006078311, 43.10035988534642], [10.538740657932518, 43.10036275519247], [10.538743529483197, 43.10036946998331], [10.538628947655505, 43.10037704374512], [10.538591392325271, 43.10037889938742], [10.53859053469692, 43.10037900096419], [10.538549416994206, 43.10038090449099], [10.538513369550392, 43.10038409051467], [10.538418617934571, 43.100388606040596], [10.5384133605899, 43.10038966722022], [10.538408103245025, 43.10039072839956], [10.538275194519992, 43.10038288029444], [10.53828017444615, 43.100419822006565], [10.538498954381616, 43.10040220335826], [10.538512922490188, 43.100502865497276], [10.538527651653672, 43.10060884617005], [10.53852953583764, 43.10062240340012], [10.538579474735197, 43.10061758859306], [10.538596484262165, 43.10061594863201], [10.538595496845163, 43.100611521490414], [10.538593749658144, 43.10060359218173]], [[10.538565409874655, 43.10054358157509], [10.538538086278002, 43.10054674035597], [10.538533087016413, 43.10052375595176], [10.53856040834923, 43.10052050715713], [10.538565409874655, 43.10054358157509]]]}}, {"type": "Feature", "properties": {"id": 70, "id_area_stradale": 306, "ac_ped_con": "01", "ac_ped_pos": null, "ac_ped_zon": "09", "ac_ped_fon": "02", "ac_ped_sed": null, "ac_ped_liv": null, "sopra_a": null, "origine_geometria": null, "codice_ctr": null, "periodizzazione": null}, "geometry": {"type": "Polygon", "coordinates": [[[10.539174435978056, 43.09686921244885], [10.539646368756847, 43.09690139633112], [10.539646421421628, 43.096900481758006], [10.539665366495205, 43.0967248183392], [10.539643015259987, 43.09671548421166], [10.539642519415395, 43.096715310790955], [10.539642519415395, 43.096715310790955], [10.5396267831164, 43.09670516729133], [10.539624909046116, 43.09670393186579], [10.539624909046116, 43.09670393186579], [10.53962164653141, 43.09669632189666], [10.53962164653141, 43.09669632189666], [10.539620446168097, 43.09668274118736], [10.539617919602959, 43.096679983775616], [10.539613809742987, 43.096677787938], [10.539555826924039, 43.096673435461405], [10.539549468937192, 43.09667469159093], [10.539545269014445, 43.09667871009152], [10.53954221304337, 43.09669405893688], [10.53954221304337, 43.09669405893688], [10.539489181847184, 43.096691170571184], [10.539489181847184, 43.096691170571184], [10.539488344310385, 43.09667245239441], [10.539198623069826, 43.096653478212836], [10.539175917517461, 43.09685566549651], [10.53917452025202, 43.09686856078895], [10.539174435978056, 43.09686921244885]]]}}, {"type": "Feature", "properties": {"id": 6, "id_area_stradale": 284, "ac_ped_con": "01", "ac_ped_pos": null, "ac_ped_zon": "01", "ac_ped_fon": "01", "ac_ped_sed": null, "ac_ped_liv": null, "sopra_a": null, "origine_geometria": null, "codice_ctr": null, "periodizzazione": null}, "geometry": {"type": "Polygon", "coordinates": [[[10.538104526330441, 43.10056833126887], [10.538112701261591, 43.10056767661156], [10.538132771800784, 43.1007018446006], [10.538155043340229, 43.100850300214155], [10.538174816570272, 43.1009824011418], [10.538237560463712, 43.10097552467971], [10.53822880297854, 43.10091531199397], [10.53819409068411, 43.10091784965192], [10.538187950009807, 43.1008738099564], [10.53822716233965, 43.10086941090113], [10.538180028154676, 43.1005622693508], [10.538174599534443, 43.10055648937197], [10.538101227652374, 43.10054621993897], [10.538104526330441, 43.10056833126887]]]}}, {"type": "Feature", "properties": {"id": 63, "id_area_stradale": 279, "ac_ped_con": "01", "ac_ped_pos": null, "ac_ped_zon": null, "ac_ped_fon": null, "ac_ped_sed": null, "ac_ped_liv": null, "sopra_a": null, "origine_geometria": null, "codice_ctr": null, "periodizzazione": null}, "geometry": {"type": "Polygon", "coordinates": [[[10.53796342672698, 43.10107933987832], [10.538058607887423, 43.10105266778986], [10.538139022017994, 43.101030066068695], [10.538199548112374, 43.1010131343553], [10.538174816570272, 43.1009824011418], [10.538132628926391, 43.1009857596277], [10.538033296241222, 43.1009938481828], [10.53793609013687, 43.10100343884215], [10.53796342672698, 43.10107933987832]]]}}, {"type": "Feature", "properties": {"id": 71, "id_area_stradale": 311, "ac_ped_con": "01", "ac_ped_pos": null, "ac_ped_zon": null, "ac_ped_fon": null, "ac_ped_sed": null, "ac_ped_liv": null, "sopra_a": "strade.aree_circolazione_veicolari;77", "origine_geometria": null, "codice_ctr": null, "periodizzazione": null}, "geometry": {"type": "Polygon", "coordinates": [[[10.545200254399905, 43.093934892421935], [10.54489446110177, 43.093847985242945], [10.54480504021311, 43.09381974757122], [10.544684984153054, 43.093784989867906], [10.544669987971828, 43.09378474206893], [10.544662344901846, 43.09378862714921], [10.54456755234219, 43.093937761333876], [10.544533816010482, 43.093992044021796], [10.544589417800706, 43.094007425668146], [10.544928967135203, 43.09410135756276], [10.545091402703704, 43.09414544779518], [10.545099153012854, 43.09412139105409], [10.545200254399905, 43.093934892421935]]]}}, {"type": "Feature", "properties": {"id": 100, "id_area_stradale": 198, "ac_ped_con": "01", "ac_ped_pos": null, "ac_ped_zon": null, "ac_ped_fon": null, "ac_ped_sed": null, "ac_ped_liv": null, "sopra_a": null, "origine_geometria": null, "codice_ctr": null, "periodizzazione": null}, "geometry": {"type": "Polygon", "coordinates": [[[10.538527598036541, 43.101786626193864], [10.538538766612552, 43.10178413536241], [10.53847715510887, 43.10163415057137], [10.53846472844819, 43.10163637532001], [10.538496384104043, 43.101712029055804], [10.538527598036541, 43.101786626193864]]]}}, {"type": "Feature", "properties": {"id": 54, "id_area_stradale": 258, "ac_ped_con": "01", "ac_ped_pos": null, "ac_ped_zon": null, "ac_ped_fon": null, "ac_ped_sed": null, "ac_ped_liv": null, "sopra_a": null, "origine_geometria": null, "codice_ctr": null, "periodizzazione": null}, "geometry": {"type": "Polygon", "coordinates": [[[10.538592393130761, 43.10093259275807], [10.53865287052379, 43.10092589359412], [10.538652977343526, 43.10092663075957], [10.5386801759471, 43.100923857649285], [10.538670269006362, 43.1008739889071], [10.538666593869893, 43.10084990616082], [10.538663704198806, 43.10083474229709], [10.538655417483183, 43.10079125680415], [10.53865344750282, 43.100781288254964], [10.53865216611364, 43.100774281944574], [10.538624679005741, 43.100775822127865], [10.53860253597872, 43.1006472649092], [10.53859951904417, 43.10062983666858], [10.538598680569201, 43.10062579589997], [10.538596484261825, 43.10061594863213], [10.53857947473568, 43.10061758859268], [10.53852953583764, 43.10062240340012], [10.538313672866982, 43.100643674755496], [10.538320318568855, 43.10066861803403], [10.538327087117372, 43.1006935596606], [10.538351300451247, 43.100872298173826], [10.538352863897757, 43.100883839217474], [10.538364193354722, 43.10095787046144], [10.538592393130761, 43.10093259275807]]]}}, {"type": "Feature", "properties": {"id": 18, "id_area_stradale": 195, "ac_ped_con": "01", "ac_ped_pos": null, "ac_ped_zon": null, "ac_ped_fon": null, "ac_ped_sed": null, "ac_ped_liv": null, "sopra_a": null, "origine_geometria": null, "codice_ctr": null, "periodizzazione": null}, "geometry": {"type": "Polygon", "coordinates": [[[10.538748328199663, 43.1015081193848], [10.538722022827212, 43.10145381556771], [10.538666183359874, 43.10132913320534], [10.538650774509115, 43.10133230379004], [10.538732323447556, 43.10151639816367], [10.538748328199663, 43.1015081193848]]]}}, {"type": "Feature", "properties": {"id": 21, "id_area_stradale": 195, "ac_ped_con": "01", "ac_ped_pos": null, "ac_ped_zon": null, "ac_ped_fon": null, "ac_ped_sed": null, "ac_ped_liv": null, "sopra_a": null, "origine_geometria": null, "codice_ctr": null, "periodizzazione": null}, "geometry": {"type": "Polygon", "coordinates": [[[10.53870089376931, 43.101532654370025], [10.53860865688439, 43.101340969685396], [10.538597354530937, 43.10134329534963], [10.538687914513778, 43.1015393670912], [10.53870089376931, 43.101532654370025]]]}}, {"type": "Feature", "properties": {"id": 22, "id_area_stradale": 196, "ac_ped_con": "01", "ac_ped_pos": null, "ac_ped_zon": null, "ac_ped_fon": null, "ac_ped_sed": null, "ac_ped_liv": null, "sopra_a": null, "origine_geometria": null, "codice_ctr": null, "periodizzazione": null}, "geometry": {"type": "Polygon", "coordinates": [[[10.539020780197255, 43.10144997793477], [10.538944876058363, 43.10146621644495], [10.538822401079576, 43.10149235585811], [10.538748328199663, 43.1015081193848], [10.538732323447556, 43.10151639816367], [10.538737654482052, 43.10152843307841], [10.53901740723425, 43.10146740205668], [10.539020780197255, 43.10144997793477]]]}}, {"type": "Feature", "properties": {"id": 23, "id_area_stradale": 196, "ac_ped_con": "01", "ac_ped_pos": null, "ac_ped_zon": null, "ac_ped_fon": null, "ac_ped_sed": null, "ac_ped_liv": null, "sopra_a": null, "origine_geometria": null, "codice_ctr": null, "periodizzazione": null}, "geometry": {"type": "Polygon", "coordinates": [[[10.53870089376931, 43.101532654370025], [10.538687914513778, 43.1015393670912], [10.53848205497913, 43.10158238528202], [10.538496307626325, 43.10159148634109], [10.538707506244219, 43.10154639732448], [10.53870089376931, 43.101532654370025]]]}}, {"type": "Feature", "properties": {"id": 25, "id_area_stradale": 196, "ac_ped_con": "01", "ac_ped_pos": null, "ac_ped_zon": null, "ac_ped_fon": null, "ac_ped_sed": null, "ac_ped_liv": null, "sopra_a": null, "origine_geometria": null, "codice_ctr": null, "periodizzazione": null}, "geometry": {"type": "Polygon", "coordinates": [[[10.539033789848009, 43.10149309857928], [10.539032435922707, 43.101493403133226], [10.538664995978994, 43.10157614364036], [10.538523168249004, 43.101608638126216], [10.538538126488104, 43.101618189825146], [10.538670477720887, 43.101588946419625], [10.53867735807363, 43.10160362134521], [10.538706655491845, 43.10159584367521], [10.53877818596914, 43.10157669263977], [10.538773854876906, 43.10156567530007], [10.538850962814127, 43.10154843021567], [10.53895355921647, 43.10152534322084], [10.53903779939967, 43.101506387576286], [10.539033789848009, 43.10149309857928]]]}}, {"type": "Feature", "properties": {"id": 60, "id_area_stradale": 273, "ac_ped_con": "01", "ac_ped_pos": null, "ac_ped_zon": null, "ac_ped_fon": null, "ac_ped_sed": null, "ac_ped_liv": null, "sopra_a": null, "origine_geometria": null, "codice_ctr": null, "periodizzazione": null}, "geometry": {"type": "Polygon", "coordinates": [[[10.538060925776382, 43.09883541411855], [10.53770609450387, 43.098832984416894], [10.537700301591038, 43.09969726867167], [10.537921285674583, 43.09969796605024], [10.538018615345875, 43.09971548145885], [10.538041130439446, 43.09965242667582], [10.538068706786301, 43.09957101515918], [10.53809823852509, 43.09946773037158], [10.538120108929698, 43.09938600130018], [10.538126505845671, 43.09934701569921], [10.538136376700576, 43.099293655755446], [10.538147673839397, 43.0992206902991], [10.538155566407776, 43.099161509020405], [10.53816630839597, 43.09909624448722], [10.538169681847581, 43.0990297456265], [10.538170933990381, 43.09901595184697], [10.538172153424965, 43.099005760323614], [10.538173348144658, 43.09898476368272], [10.538173593890987, 43.09897494542922], [10.538187146745432, 43.098836278148795], [10.538060925776382, 43.09883541411855]], [[10.537768500825722, 43.09959860572401], [10.5377795067426, 43.09956406948046], [10.537767548476742, 43.09956202406863], [10.537772743986004, 43.09954572806674], [10.537784702248832, 43.09954777347808], [10.53779569789187, 43.09951331841167], [10.537940060954508, 43.099538013707175], [10.53792936380654, 43.09957260884812], [10.537941345070053, 43.099574590902115], [10.537936310195136, 43.09959092077077], [10.537924316419392, 43.099588929879886], [10.537913689127825, 43.09962337100306], [10.537768500825722, 43.09959860572401]], [[10.537982031017533, 43.09940130096851], [10.537778831080656, 43.099400078858], [10.537778869906532, 43.099395738147486], [10.537779184634822, 43.09936461422434], [10.537766894942843, 43.099364545260656], [10.53776706579345, 43.099347803522946], [10.537779343198242, 43.09934787265172], [10.537779687847898, 43.099312543205556], [10.537850733752002, 43.09931291210025], [10.537983350225023, 43.099313597018046], [10.537982812305446, 43.09934905512578], [10.537995102895103, 43.099349160072336], [10.537994858178365, 43.099365893798534], [10.537982580094486, 43.0993657976884], [10.537982031017533, 43.09940130096851]], [[10.53777486943746, 43.09917990803418], [10.537780673050609, 43.09914470332677], [10.537768481010687, 43.09914362454226], [10.537771210944568, 43.099127010495636], [10.537783415265013, 43.09912808911483], [10.53778922980137, 43.099092830232664], [10.538028277892165, 43.09911390276338], [10.538022450081408, 43.09914911681301], [10.538034642126114, 43.09915019557041], [10.53803189997902, 43.09916680978725], [10.538019695647256, 43.09916573119474], [10.538013846188841, 43.099201062593664], [10.53777486943746, 43.09917990803418]], [[10.53781124979958, 43.09899610467835], [10.537799232910123, 43.09896176076664], [10.537787332628767, 43.09896399173449], [10.537781667448193, 43.09894776964592], [10.537793555442889, 43.09894553884378], [10.537781471523587, 43.098910970717114], [10.538014009500074, 43.098866874852526], [10.538022175592314, 43.098889735681304], [10.538026259204054, 43.0989011885992], [10.538038133769914, 43.09889891292942], [10.53804390889076, 43.098915106513964], [10.538032022038275, 43.0989173823495], [10.538044392230342, 43.09895209067428], [10.53799153368919, 43.098962066796894], [10.53781124979958, 43.09899610467835]]]}}, {"type": "Feature", "properties": {"id": 53, "id_area_stradale": 277, "ac_ped_con": "01", "ac_ped_pos": null, "ac_ped_zon": null, "ac_ped_fon": null, "ac_ped_sed": null, "ac_ped_liv": null, "sopra_a": null, "origine_geometria": null, "codice_ctr": null, "periodizzazione": null}, "geometry": {"type": "Polygon", "coordinates": [[[10.538259957910798, 43.10126643036633], [10.53824008216575, 43.10121928948517], [10.538236292143713, 43.10122024032788], [10.538029571413123, 43.101272138482045], [10.538032172462195, 43.1012778664264], [10.538037890715964, 43.101290305876404], [10.538053083910208, 43.10131577900722], [10.538055206719092, 43.101319337882664], [10.538126266000646, 43.10130100399672], [10.538126266001479, 43.10130100399561], [10.538152881102826, 43.10129407293023], [10.538259957910798, 43.10126643036633], [10.538259957910798, 43.10126643036633]]]}}, {"type": "Feature", "properties": {"id": 30, "id_area_stradale": 198, "ac_ped_con": "01", "ac_ped_pos": null, "ac_ped_zon": null, "ac_ped_fon": null, "ac_ped_sed": null, "ac_ped_liv": null, "sopra_a": null, "origine_geometria": null, "codice_ctr": null, "periodizzazione": null}, "geometry": {"type": "Polygon", "coordinates": [[[10.538496307626325, 43.10159148634109], [10.53848205497913, 43.10158238528202], [10.538399692212725, 43.10138485249392], [10.538383928104357, 43.10138816648863], [10.538472090049352, 43.101596656381176], [10.538496307626325, 43.10159148634109]]]}}, {"type": "Feature", "properties": {"id": 35, "id_area_stradale": null, "ac_ped_con": "01", "ac_ped_pos": null, "ac_ped_zon": null, "ac_ped_fon": null, "ac_ped_sed": null, "ac_ped_liv": null, "sopra_a": null, "origine_geometria": null, "codice_ctr": null, "periodizzazione": null}, "geometry": {"type": "Polygon", "coordinates": [[[10.538953498212312, 43.099156166023185], [10.539145451198664, 43.09918131831738], [10.539253800016894, 43.09919480846404], [10.539281836929973, 43.099206516812835], [10.539310122899337, 43.099146235694135], [10.539251446887771, 43.099129392825176], [10.539249303935227, 43.099119677564126], [10.5392230152515, 43.09910391651297], [10.539222839162749, 43.09910386295914], [10.539170012787881, 43.09913930427488], [10.53913982709321, 43.09914759835853], [10.538973770363548, 43.09911720322355], [10.538953498212312, 43.099156166023185]]]}}, {"type": "Feature", "properties": {"id": 7, "id_area_stradale": null, "ac_ped_con": "01", "ac_ped_pos": null, "ac_ped_zon": "01", "ac_ped_fon": "01", "ac_ped_sed": null, "ac_ped_liv": null, "sopra_a": "strade.aree_circolazione_veicolari;442|strade.aree_circolazione_pedonali;54|strade.aree_circolazione_pedonali;55", "origine_geometria": null, "codice_ctr": null, "periodizzazione": null}, "geometry": {"type": "Polygon", "coordinates": [[[10.538402562052694, 43.10117554844803], [10.538396498862632, 43.10116896660317], [10.538364193354722, 43.10095787046144], [10.538352863897757, 43.100883839217474], [10.538351300451247, 43.100872298173826], [10.538327087117372, 43.1006935596606], [10.538320318568855, 43.10066861803403], [10.538313672866982, 43.100643674755496], [10.53828017444615, 43.100419822006565], [10.538258661545344, 43.10042929583075], [10.53830525969222, 43.100705198810886], [10.538365702955854, 43.101097254266385], [10.538380781744326, 43.10118156634596], [10.538402562052694, 43.10117554844803]]]}}, {"type": "Feature", "properties": {"id": 45, "id_area_stradale": null, "ac_ped_con": "01", "ac_ped_pos": null, "ac_ped_zon": null, "ac_ped_fon": null, "ac_ped_sed": null, "ac_ped_liv": null, "sopra_a": null, "origine_geometria": null, "codice_ctr": null, "periodizzazione": null}, "geometry": {"type": "Polygon", "coordinates": [[[10.545543998960332, 43.09809097974582], [10.545567569031094, 43.0981536031361], [10.54559263355533, 43.09821701674415], [10.545616930674441, 43.098210835614005], [10.545617180447213, 43.09821075750895], [10.545617066734355, 43.09821043741394], [10.54561203002446, 43.09819777422043], [10.545592607780083, 43.09814920895862], [10.545573318067673, 43.098088643282246], [10.545543998960332, 43.09809097974582]]]}}, {"type": "Feature", "properties": {"id": 46, "id_area_stradale": null, "ac_ped_con": "01", "ac_ped_pos": null, "ac_ped_zon": null, "ac_ped_fon": null, "ac_ped_sed": null, "ac_ped_liv": null, "sopra_a": null, "origine_geometria": null, "codice_ctr": null, "periodizzazione": null}, "geometry": {"type": "Polygon", "coordinates": [[[10.542528895011815, 43.10987924679799], [10.542525180847772, 43.109871197569866], [10.542377516562562, 43.109899542018226], [10.542321830755375, 43.1099073516976], [10.542344079091333, 43.109974819202556], [10.542415079514493, 43.10996469534169], [10.542414886215608, 43.10996416551395], [10.54241488621573, 43.10996416551386], [10.542444197435852, 43.10995848378195], [10.5424444895232, 43.10995587342884], [10.542444414726926, 43.10995566341308], [10.5424476672221, 43.10995500544311], [10.542449148014052, 43.109954600966134], [10.542442715978083, 43.10993695690127], [10.542438897640027, 43.10992683325853], [10.542428486536028, 43.10989887947962], [10.54252889501169, 43.109879246797895], [10.542528895011815, 43.10987924679799]]]}}, {"type": "Feature", "properties": {"id": 37, "id_area_stradale": 245, "ac_ped_con": "01", "ac_ped_pos": null, "ac_ped_zon": null, "ac_ped_fon": null, "ac_ped_sed": null, "ac_ped_liv": null, "sopra_a": null, "origine_geometria": null, "codice_ctr": null, "periodizzazione": null}, "geometry": {"type": "Polygon", "coordinates": [[[10.539412956084366, 43.101103880969525], [10.539271408690508, 43.10111424936234], [10.53923919257904, 43.10111342208082], [10.539097783752895, 43.101124418712516], [10.539119521967848, 43.10121714320696], [10.539260492571046, 43.10120336103614], [10.539292234216152, 43.101199962561154], [10.539408236393147, 43.10119507038655], [10.539408236393147, 43.10119507038655], [10.539412956084385, 43.10110388096954], [10.539412956084366, 43.101103880969525]]]}}, {"type": "Feature", "properties": {"id": 9, "id_area_stradale": null, "ac_ped_con": "01", "ac_ped_pos": "02", "ac_ped_zon": "03", "ac_ped_fon": "01", "ac_ped_sed": null, "ac_ped_liv": null, "sopra_a": null, "origine_geometria": null, "codice_ctr": null, "periodizzazione": null}, "geometry": {"type": "Polygon", "coordinates": [[[10.53819728109771, 43.10019609295317], [10.538182122205338, 43.100194315722035], [10.538170622171059, 43.10025525094808], [10.538183686036273, 43.10025678620601], [10.53819728109771, 43.10019609295317]]]}}, {"type": "Feature", "properties": {"id": 32, "id_area_stradale": 198, "ac_ped_con": "01", "ac_ped_pos": null, "ac_ped_zon": null, "ac_ped_fon": null, "ac_ped_sed": null, "ac_ped_liv": null, "sopra_a": null, "origine_geometria": null, "codice_ctr": null, "periodizzazione": null}, "geometry": {"type": "Polygon", "coordinates": [[[10.538538126488104, 43.101618189825146], [10.538523168249004, 43.101608638126216], [10.53851886496416, 43.10160962435194], [10.538639104905887, 43.101926047913764], [10.538644844290078, 43.10193466192042], [10.538661167149428, 43.10193358520773], [10.538595262047753, 43.101765186069755], [10.538576606769432, 43.10171213004085], [10.538538126488104, 43.101618189825146]]]}}, {"type": "Feature", "properties": {"id": 67, "id_area_stradale": 289, "ac_ped_con": "01", "ac_ped_pos": null, "ac_ped_zon": null, "ac_ped_fon": null, "ac_ped_sed": null, "ac_ped_liv": null, "sopra_a": null, "origine_geometria": null, "codice_ctr": null, "periodizzazione": null}, "geometry": {"type": "Polygon", "coordinates": [[[10.53869886310888, 43.10404725320161], [10.53866337087639, 43.10405056984301], [10.538277386062969, 43.103796523211415], [10.537960131576051, 43.10359368115012], [10.537440883681562, 43.10324208635387], [10.536777066142696, 43.1026760508724], [10.536512171812108, 43.10237358498755], [10.536332316953064, 43.10209779704769], [10.536172585490107, 43.101822302617315], [10.536110533777228, 43.101702581057744], [10.53603768521358, 43.10165719181388], [10.535960928703982, 43.10162421954854], [10.535914000531392, 43.10160321144204], [10.535887307911745, 43.101547929147046], [10.535915282280392, 43.10148573081813], [10.535959815720785, 43.10141094564564], [10.53594044431118, 43.101142276239386], [10.535917937513332, 43.10091692490325], [10.535890904962635, 43.10067926972669], [10.535889946814134, 43.10047217599794], [10.535888247531146, 43.10040419365558], [10.535897640031976, 43.100011148929035], [10.535915674101595, 43.09968255874303], [10.535938470476127, 43.099263231065386], [10.535933393541798, 43.099172625658504], [10.535928522595514, 43.09909026053548], [10.535897752940489, 43.09881556172093], [10.535765733420059, 43.09842784945655], [10.5355779236407, 43.09817071375154], [10.535407909118566, 43.09795043268775], [10.535366087068821, 43.09783353034497], [10.53530989760944, 43.097835658087064], [10.53527337583083, 43.097874615665546], [10.53530470006361, 43.097927775236684], [10.535400808546227, 43.09802265466536], [10.535604010129767, 43.09827683643752], [10.535772634351309, 43.09857269715567], [10.53585077202746, 43.098773603195234], [10.535868242833054, 43.09892878455797], [10.535890084533055, 43.09929633752035], [10.535878731960802, 43.0996859739958], [10.53587029742937, 43.10006578265957], [10.535858728823332, 43.10040458985174], [10.535856242276235, 43.100642641248015], [10.535879907331774, 43.100914344205385], [10.535905858569247, 43.10110873788918], [10.535918000270563, 43.101256949775475], [10.535928674391497, 43.1013464496437], [10.535913505665201, 43.10141465838275], [10.535868585955697, 43.101473993008376], [10.535857247963863, 43.101526694609895], [10.535859101762698, 43.101600857151666], [10.535919221754543, 43.10164332621501], [10.53601737249285, 43.1016883759022], [10.536094438128567, 43.101733708549496], [10.536170299886843, 43.101899611861576], [10.53623219740204, 43.10201315316965], [10.536281712069318, 43.10209847645413], [10.53662676228987, 43.10256987935923], [10.536817725407008, 43.10278369478595], [10.537128083872492, 43.10304845552842], [10.537484911052493, 43.103315682207175], [10.53800868642736, 43.103679580510814], [10.538333756928038, 43.103857588229374], [10.538566128239497, 43.104039932582694], [10.53869834312085, 43.10410029083002], [10.538698624283429, 43.10407697137892], [10.53869886310888, 43.10404725320161]]]}}, {"type": "Feature", "properties": {"id": 38, "id_area_stradale": 283, "ac_ped_con": "01", "ac_ped_pos": null, "ac_ped_zon": null, "ac_ped_fon": null, "ac_ped_sed": null, "ac_ped_liv": null, "sopra_a": null, "origine_geometria": null, "codice_ctr": null, "periodizzazione": null}, "geometry": {"type": "Polygon", "coordinates": [[[10.539376413478731, 43.10033196324682], [10.539207292916183, 43.10033054635488], [10.539207715579806, 43.100234642326505], [10.53917686592775, 43.10023433691852], [10.539176847889227, 43.10023361679801], [10.539176723779603, 43.100218851022845], [10.538926320624316, 43.10021510527259], [10.538926431256778, 43.100248960852944], [10.538995919236488, 43.10024154305012], [10.538998473049423, 43.100255195603275], [10.539088754813253, 43.10024884876348], [10.539145370542727, 43.10024754699662], [10.539164874902381, 43.10034921603633], [10.539166041531804, 43.10037126146534], [10.539318754544562, 43.10037010772641], [10.539383406862754, 43.100370768777054], [10.539376413478731, 43.10033196324682]]]}}, {"type": "Feature", "properties": {"id": 56, "id_area_stradale": 261, "ac_ped_con": "01", "ac_ped_pos": null, "ac_ped_zon": "01", "ac_ped_fon": "01", "ac_ped_sed": null, "ac_ped_liv": null, "sopra_a": null, "origine_geometria": null, "codice_ctr": null, "periodizzazione": null}, "geometry": {"type": "Polygon", "coordinates": [[[10.539240434969555, 43.09835711565911], [10.539179142930985, 43.09834335273909], [10.539180665397767, 43.098340360761945], [10.539025955785405, 43.09831065558032], [10.538988085018984, 43.098304771687175], [10.538981109475008, 43.09834025335219], [10.538958747618986, 43.09833542150518], [10.53894429840319, 43.09845029308101], [10.538914137375945, 43.09869007265789], [10.538919149686945, 43.09871071199044], [10.538939251592724, 43.09871844198063], [10.538963193647191, 43.09872564971402], [10.538986258072423, 43.09872345709103], [10.538986281637118, 43.09872439798957], [10.539014746907196, 43.098707073277204], [10.539081000953692, 43.09860242302951], [10.539240434969555, 43.09835711565911]]]}}, {"type": "Feature", "properties": {"id": 57, "id_area_stradale": 269, "ac_ped_con": "01", "ac_ped_pos": null, "ac_ped_zon": null, "ac_ped_fon": null, "ac_ped_sed": null, "ac_ped_liv": null, "sopra_a": null, "origine_geometria": null, "codice_ctr": null, "periodizzazione": null}, "geometry": {"type": "Polygon", "coordinates": [[[10.542888154624844, 43.09335301614519], [10.543074050503527, 43.09307457333624], [10.543086677473257, 43.09305957891043], [10.543115378164039, 43.09305177980817], [10.543142900277656, 43.0930545852744], [10.543171973038156, 43.093061605295716], [10.543552586703886, 43.09320153684982], [10.544146368517545, 43.093415491135865], [10.544636904688451, 43.09340172342552], [10.544555002000802, 43.09337662195684], [10.544145411126127, 43.09337738480196], [10.543138402445905, 43.093019306201306], [10.54310321880033, 43.09301796072389], [10.543073047212816, 43.09302472078939], [10.543051701081959, 43.09303771505046], [10.542874398473788, 43.093309881827615], [10.542864840384352, 43.09331283434633], [10.542851350707618, 43.09331215764312], [10.542888154624844, 43.09335301614519]]]}}, {"type": "Feature", "properties": {"id": 51, "id_area_stradale": 257, "ac_ped_con": "01", "ac_ped_pos": null, "ac_ped_zon": null, "ac_ped_fon": null, "ac_ped_sed": null, "ac_ped_liv": null, "sopra_a": null, "origine_geometria": null, "codice_ctr": null, "periodizzazione": null}, "geometry": {"type": "Polygon", "coordinates": [[[10.538338799441508, 43.101397654358465], [10.538320854574192, 43.10135754806462], [10.538306049881555, 43.10120304912379], [10.538305808246596, 43.101202281583646], [10.538285404517225, 43.101207918975405], [10.538236292143713, 43.10122024032788], [10.53824008216575, 43.10121928948517], [10.538259957910798, 43.10126643036633], [10.538292050964177, 43.10133596420389], [10.538322072083533, 43.10140117128978], [10.538338799441508, 43.101397654358465]]]}}, {"type": "Feature", "properties": {"id": 11, "id_area_stradale": 257, "ac_ped_con": "01", "ac_ped_pos": null, "ac_ped_zon": null, "ac_ped_fon": null, "ac_ped_sed": null, "ac_ped_liv": null, "sopra_a": null, "origine_geometria": null, "codice_ctr": null, "periodizzazione": null}, "geometry": {"type": "Polygon", "coordinates": [[[10.538962082672018, 43.10114826442105], [10.538953713902195, 43.1011125794303], [10.538716648479117, 43.101141070188326], [10.538694673313445, 43.10114190595313], [10.538684235438895, 43.10114234406375], [10.538672577559353, 43.101142833380585], [10.538680698706047, 43.101172709292335], [10.538589726948363, 43.101185908538106], [10.538581726431671, 43.10115594095255], [10.538549395348472, 43.10116033765474], [10.538517062006465, 43.101164644332776], [10.53852647461094, 43.101197024162516], [10.538435284142405, 43.101211306770686], [10.53842587158338, 43.10117892693279], [10.538409629402112, 43.101178064750385], [10.538402562052694, 43.10117554844803], [10.538380781744326, 43.10118156634596], [10.538388564700032, 43.10122508149674], [10.538392761587017, 43.10123565042916], [10.538399843580114, 43.10124365930344], [10.538409462437222, 43.101249923209295], [10.538422540042637, 43.10125199852681], [10.53843973117307, 43.10125149726866], [10.538535932304903, 43.10123120429268], [10.538596750671369, 43.10121546334588], [10.538625269867868, 43.10127720263255], [10.538625195692708, 43.10127736796582], [10.538634759371709, 43.10129614890231], [10.538650774509115, 43.10133230379004], [10.538666183359874, 43.10132913320534], [10.538988933363203, 43.10126275168518], [10.538962082672018, 43.10114826442105]]]}}, {"type": "Feature", "properties": {"id": 15, "id_area_stradale": 257, "ac_ped_con": "01", "ac_ped_pos": null, "ac_ped_zon": null, "ac_ped_fon": null, "ac_ped_sed": null, "ac_ped_liv": null, "sopra_a": null, "origine_geometria": null, "codice_ctr": null, "periodizzazione": null}, "geometry": {"type": "Polygon", "coordinates": [[[10.538399692212725, 43.10138485249392], [10.538597354530937, 43.10134329534963], [10.53860865688439, 43.101340969685396], [10.538579561534265, 43.1012805028223], [10.538571529461334, 43.101278719864744], [10.538565932819393, 43.10128095620332], [10.538564146537368, 43.10128323135515], [10.53853110761764, 43.10133788289108], [10.538411314951178, 43.10136317539183], [10.53840544898118, 43.10134974744742], [10.538405661997668, 43.10134353145246], [10.538423519264088, 43.101315647445766], [10.538422480181499, 43.10131341028088], [10.53841213213682, 43.10131237881152], [10.538389805190032, 43.10134824689988], [10.538379481848889, 43.10137765043359], [10.538383928104357, 43.10138816648863], [10.538399692212725, 43.10138485249392]]]}}, {"type": "Feature", "properties": {"id": 34, "id_area_stradale": null, "ac_ped_con": "01", "ac_ped_pos": null, "ac_ped_zon": null, "ac_ped_fon": null, "ac_ped_sed": null, "ac_ped_liv": null, "sopra_a": null, "origine_geometria": null, "codice_ctr": null, "periodizzazione": null}, "geometry": {"type": "Polygon", "coordinates": [[[10.538305808246596, 43.101202281583646], [10.538243036349842, 43.101002824866704], [10.538199548112374, 43.1010131343553], [10.538285404517225, 43.101207918975405], [10.538305808246596, 43.101202281583646]]]}}, {"type": "Feature", "properties": {"id": 76, "id_area_stradale": null, "ac_ped_con": "01", "ac_ped_pos": null, "ac_ped_zon": "01", "ac_ped_fon": "01", "ac_ped_sed": null, "ac_ped_liv": null, "sopra_a": null, "origine_geometria": null, "codice_ctr": null, "periodizzazione": null}, "geometry": {"type": "Polygon", "coordinates": [[[10.539073447108537, 43.09761204214498], [10.539526533134735, 43.09766531482544], [10.539526714246824, 43.0976601581494], [10.53952622083069, 43.097660100649044], [10.539527769925192, 43.09762512619456], [10.53952794523824, 43.097625108997256], [10.53952376797093, 43.09747446458182], [10.539246696002355, 43.0974548537912], [10.539231575444365, 43.09745398915766], [10.539162391416047, 43.09744888668718], [10.539161836069612, 43.097448897718074], [10.53917279022042, 43.097499870392156], [10.539172369908753, 43.09750072777457], [10.539169328986771, 43.09750566909979], [10.539159632602669, 43.097521913733964], [10.539155530835044, 43.09753395430474], [10.539154444453075, 43.09753714333385], [10.539154374043846, 43.09753735001732], [10.539107145719758, 43.09753532582821], [10.53910483399207, 43.09754491505615], [10.539104238305514, 43.09754892801238], [10.539104107902444, 43.09754916278065], [10.539084471655919, 43.097547752563294], [10.539083083454104, 43.097555700241855], [10.539078042342162, 43.09759382375676], [10.539075695009974, 43.097603130005645], [10.539073447108537, 43.09761204214498]]]}}, {"type": "Feature", "properties": {"id": 77, "id_area_stradale": 319, "ac_ped_con": "01", "ac_ped_pos": null, "ac_ped_zon": null, "ac_ped_fon": null, "ac_ped_sed": null, "ac_ped_liv": null, "sopra_a": null, "origine_geometria": null, "codice_ctr": null, "periodizzazione": null}, "geometry": {"type": "Polygon", "coordinates": [[[10.539073447108537, 43.09761204214498], [10.539526533134735, 43.09766531482544], [10.539526714246824, 43.0976601581494], [10.53952622083069, 43.097660100649044], [10.53952622083069, 43.097660100649044], [10.539527769925192, 43.09762512619456], [10.539527769925192, 43.09762512619456], [10.53952794523824, 43.097625108997256], [10.53952376797093, 43.09747446458182], [10.539246696002355, 43.0974548537912], [10.539231575444365, 43.09745398915766], [10.539162391416047, 43.09744888668718], [10.539162391416047, 43.09744888668718], [10.539161836069612, 43.097448897718074], [10.53917279022042, 43.097499870392156], [10.539172369908753, 43.09750072777457], [10.539169328986771, 43.09750566909979], [10.539159632602669, 43.097521913733964], [10.539155530835044, 43.09753395430474], [10.539154444453075, 43.09753714333385], [10.539154444453075, 43.09753714333385], [10.539154444453075, 43.09753714333385], [10.539154374043846, 43.09753735001732], [10.539107145719758, 43.09753532582821], [10.53910483399207, 43.09754491505615], [10.539104238305514, 43.09754892801238], [10.539104238305514, 43.09754892801238], [10.539104107902444, 43.09754916278065], [10.539104107902444, 43.09754916278065], [10.539084471655919, 43.097547752563294], [10.539083083454104, 43.097555700241855], [10.539078042342162, 43.09759382375676], [10.539075695009974, 43.097603130005645], [10.539073447108537, 43.09761204214498]]]}}, {"type": "Feature", "properties": {"id": 80, "id_area_stradale": 270, "ac_ped_con": "01", "ac_ped_pos": null, "ac_ped_zon": null, "ac_ped_fon": null, "ac_ped_sed": null, "ac_ped_liv": null, "sopra_a": null, "origine_geometria": null, "codice_ctr": null, "periodizzazione": null}, "geometry": {"type": "Polygon", "coordinates": [[[10.537813938033597, 43.098638576054036], [10.538052066034727, 43.09865186262789], [10.538055083316486, 43.0985646538311], [10.538153413828798, 43.098570479494356], [10.53815495183333, 43.09865760308158], [10.53820148991445, 43.098660199616134], [10.538743254481501, 43.09869042528689], [10.538762414037732, 43.09853760243793], [10.538778601411346, 43.098407273030375], [10.538233176200468, 43.09837879583435], [10.538234559358846, 43.098367786507104], [10.538250755660666, 43.09813914607285], [10.538077391835461, 43.098136664871035], [10.538077100625577, 43.09813710163995], [10.538033111004797, 43.0981846409756], [10.537988609110563, 43.098225278394416], [10.53793943045715, 43.098246595043186], [10.537871014610923, 43.09826515397339], [10.537818457807855, 43.09827043347733], [10.537818077925918, 43.09830137541009], [10.537819030508977, 43.09830137428265], [10.537813938033597, 43.098638576054036]]]}}, {"type": "Feature", "properties": {"id": 29, "id_area_stradale": 198, "ac_ped_con": "01", "ac_ped_pos": null, "ac_ped_zon": null, "ac_ped_fon": null, "ac_ped_sed": null, "ac_ped_liv": null, "sopra_a": "strade.aree_circolazione_veicolari;395", "origine_geometria": null, "codice_ctr": null, "periodizzazione": null}, "geometry": {"type": "Polygon", "coordinates": [[[10.538338799441508, 43.101397654358465], [10.538322072083533, 43.10140117128978], [10.538340132642947, 43.10144040078673], [10.538408871122009, 43.10158949228882], [10.538423296680513, 43.101586506937274], [10.538338799441508, 43.101397654358465]]]}}, {"type": "Feature", "properties": {"id": 84, "id_area_stradale": 197, "ac_ped_con": "01", "ac_ped_pos": null, "ac_ped_zon": null, "ac_ped_fon": "01", "ac_ped_sed": null, "ac_ped_liv": null, "sopra_a": "strade.aree_circolazione_pedonali;86|strade.aree_circolazione_pedonali;26", "origine_geometria": null, "codice_ctr": null, "periodizzazione": null}, "geometry": {"type": "Polygon", "coordinates": [[[10.538257866034131, 43.1016263936931], [10.538257717193947, 43.10162662224471], [10.538271301751408, 43.10165772434712], [10.538271675165271, 43.10165777897441], [10.538271232819723, 43.10165788615855], [10.538280314093628, 43.1016770337836], [10.538279002292215, 43.101673719736695], [10.538330475769401, 43.10166330286969], [10.538353457685442, 43.10165869334537], [10.538433384497766, 43.101642662277186], [10.53845983727287, 43.10163734153337], [10.53846472844819, 43.10163637532001], [10.538437393125728, 43.10161945411624], [10.538423296680513, 43.101586506937274], [10.538408871118072, 43.10158949228028], [10.538296427049662, 43.10161873790723], [10.538266827540161, 43.10162426839876], [10.538257866034131, 43.1016263936931]]]}}, {"type": "Feature", "properties": {"id": 26, "id_area_stradale": 288, "ac_ped_con": "01", "ac_ped_pos": null, "ac_ped_zon": null, "ac_ped_fon": null, "ac_ped_sed": null, "ac_ped_liv": null, "sopra_a": null, "origine_geometria": null, "codice_ctr": null, "periodizzazione": null}, "geometry": {"type": "Polygon", "coordinates": [[[10.538208072147674, 43.10165800852962], [10.538211763339131, 43.10165814531161], [10.538262361542516, 43.10165792437291], [10.538271232819723, 43.10165788615855], [10.53826078802081, 43.101633652947534], [10.538253823773585, 43.10163545305357], [10.538203413392974, 43.10164774114853], [10.538208072147674, 43.10165800852962]]]}}, {"type": "Feature", "properties": {"id": 82, "id_area_stradale": 287, "ac_ped_con": "01", "ac_ped_pos": null, "ac_ped_zon": null, "ac_ped_fon": null, "ac_ped_sed": null, "ac_ped_liv": null, "sopra_a": null, "origine_geometria": null, "codice_ctr": null, "periodizzazione": null}, "geometry": {"type": "Polygon", "coordinates": [[[10.53858400006071, 43.101938674834514], [10.53838133493259, 43.10197378330484], [10.538344665432266, 43.101855208485375], [10.538303183407162, 43.101861747010375], [10.538321970139304, 43.10191380465349], [10.53819524687003, 43.10193780589121], [10.538178387527127, 43.10188141762396], [10.537890815650767, 43.101926744800345], [10.537888088628222, 43.102914685464654], [10.538452583158481, 43.10331857444601], [10.538564024150753, 43.10337087494279], [10.538620347858918, 43.10336003035064], [10.538700575729274, 43.10332644812656], [10.538682200540256, 43.103053091236525], [10.538676003382301, 43.10295783180266], [10.53867580614506, 43.10295486295811], [10.538674495355782, 43.10293687151289], [10.538673583562208, 43.10292499778637], [10.538673184579702, 43.10291888006709], [10.538671750959175, 43.10290089027303], [10.538670986809322, 43.10289000505995], [10.538661875046984, 43.10274852955109], [10.538649182709568, 43.10255911141654], [10.53864981719963, 43.10255009834929], [10.538649551222665, 43.1025492915187], [10.538647823497096, 43.102544092119096], [10.53864506391648, 43.10253580458361], [10.53858400006071, 43.101938674834514]]]}}, {"type": "Feature", "properties": {"id": 102, "id_area_stradale": 198, "ac_ped_con": "01", "ac_ped_pos": null, "ac_ped_zon": null, "ac_ped_fon": null, "ac_ped_sed": null, "ac_ped_liv": null, "sopra_a": null, "origine_geometria": null, "codice_ctr": null, "periodizzazione": null}, "geometry": {"type": "Polygon", "coordinates": [[[10.53858400006071, 43.101938674834514], [10.538592266358213, 43.10193660584307], [10.538538766612552, 43.10178413536241], [10.538538766604365, 43.10178413537362], [10.53852759803699, 43.101786626194055], [10.538527598036541, 43.101786626193864], [10.53858400006071, 43.101938674834514]]]}}, {"type": "Feature", "properties": {"id": 99, "id_area_stradale": null, "ac_ped_con": "01", "ac_ped_pos": null, "ac_ped_zon": null, "ac_ped_fon": "01", "ac_ped_sed": null, "ac_ped_liv": null, "sopra_a": null, "origine_geometria": null, "codice_ctr": null, "periodizzazione": null}, "geometry": {"type": "Polygon", "coordinates": [[[10.538527598036541, 43.101786626193864], [10.538538766612552, 43.10178413536241], [10.53847715510887, 43.10163415057137], [10.53846472844819, 43.10163637532001], [10.538496384104043, 43.101712029055804], [10.538527598036541, 43.101786626193864]]]}}, {"type": "Feature", "properties": {"id": 78, "id_area_stradale": 288, "ac_ped_con": "01", "ac_ped_pos": null, "ac_ped_zon": null, "ac_ped_fon": null, "ac_ped_sed": null, "ac_ped_liv": null, "sopra_a": "strade.aree_circolazione_pedonali;66", "origine_geometria": null, "codice_ctr": null, "periodizzazione": null}, "geometry": {"type": "Polygon", "coordinates": [[[10.537700301591038, 43.09969726867167], [10.537700221693274, 43.09970918947255], [10.537698004275683, 43.09984053139522], [10.53767607443168, 43.101446596569176], [10.537684431190103, 43.10167975778944], [10.537780236832372, 43.10168090567601], [10.537778379475625, 43.10194319995781], [10.537890815650767, 43.101926744800345], [10.538303183407162, 43.101861747010375], [10.538344665432266, 43.101855208485375], [10.538335890461452, 43.101825581886445], [10.538306423689049, 43.10174682129237], [10.538306392609234, 43.10174682856102], [10.538306392593594, 43.10174682855483], [10.538294804895976, 43.10171591867577], [10.538280314093628, 43.1016770337836], [10.538271232819723, 43.10165788615855], [10.538262361542516, 43.10165792437291], [10.538211763339131, 43.10165814531161], [10.538208072147674, 43.10165800852962], [10.538203413392974, 43.10164774114853], [10.538199749629047, 43.10163966739314], [10.538169575772978, 43.10157316928777], [10.538110199684766, 43.10144232187995], [10.538082176317786, 43.101380566422144], [10.538055206719099, 43.101319337882956], [10.53805308391034, 43.101315779007564], [10.5380378907161, 43.10129030587676], [10.538032172462202, 43.10127786642665], [10.537992924886533, 43.10128577765889], [10.537972323915113, 43.101238420535964], [10.537972323915115, 43.10123842053596], [10.53796087843389, 43.10121318156767], [10.537960878433884, 43.10121318156767], [10.537912649959173, 43.10110775629356], [10.537948635952091, 43.101097187563155], [10.53796342672698, 43.10107933987832], [10.53793609013687, 43.10100343884215], [10.537899539659747, 43.101006181206536], [10.537888179225956, 43.10094015052678], [10.537886925063823, 43.1009244094394], [10.537881616172342, 43.10089395540182], [10.53787939161878, 43.10088363007899], [10.537873984676319, 43.100854167857854], [10.537873655744907, 43.1008410256518], [10.53786838291548, 43.10081201185473], [10.537865257926086, 43.10080007781574], [10.537862546632836, 43.10078012417723], [10.537861748869439, 43.100767888725656], [10.537856933623436, 43.10073751809725], [10.537855180168442, 43.10072637603395], [10.537849134266544, 43.10069593189864], [10.537847838384746, 43.10068343300491], [10.537843193305132, 43.10065495104178], [10.537840836915356, 43.100644267308006], [10.53783636543194, 43.100612901558904], [10.537835565424004, 43.10060057609158], [10.537834020545684, 43.10058303800179], [10.537836953071958, 43.10057255332599], [10.537867530810859, 43.10056405000694], [10.537873201246919, 43.10051507735093], [10.537881319526903, 43.100513877796445], [10.537874039317607, 43.100507762505956], [10.53787215502851, 43.10040792748782], [10.537876942084893, 43.100338978425576], [10.537866316991362, 43.10033668999414], [10.537875782849486, 43.10020428609171], [10.53788812524803, 43.100122989314166], [10.537888125246777, 43.10012298931327], [10.5378972735627, 43.10006136535671], [10.537904189072357, 43.1000234533472], [10.53790418907479, 43.10002345334626], [10.538018615346123, 43.099715481458944], [10.537921285674583, 43.09969796605024], [10.537700301591038, 43.09969726867167]], [[10.537962628950195, 43.101712684788524], [10.537915327527045, 43.101712555132686], [10.537915327514778, 43.10171255512358], [10.537917378650201, 43.1015691573085], [10.537917378662632, 43.1015691572996], [10.537963431936218, 43.10156950182991], [10.537963623432326, 43.1015555512362], [10.537963623444757, 43.1015555512273], [10.53796853962177, 43.10155558420263], [10.537973075825978, 43.101538963897305], [10.53797881554559, 43.10152280464879], [10.537978815567262, 43.10152280464571], [10.53798851599235, 43.10153232713343], [10.537998802217093, 43.1015436516586], [10.53800847197068, 43.10155587591822], [10.538015743274268, 43.10156555711637], [10.538022404413228, 43.1015763900905], [10.53802905327069, 43.10158722322996], [10.538035071334436, 43.101599856749694], [10.538052522367607, 43.10163820663623], [10.538052522359296, 43.1016382066478], [10.538043915238951, 43.10163996115957], [10.538043528124192, 43.10168045976144], [10.53804352811531, 43.10168045976994], [10.538037367936507, 43.10168178519185], [10.538038565119171, 43.101684938689374], [10.538038565111206, 43.10168493870031], [10.537985422348628, 43.10169789013591], [10.537985306502845, 43.101721735701794], [10.537985306490535, 43.10172173571078], [10.53796258379781, 43.10172168092851], [10.537962583785543, 43.1017216809195], [10.537962628950195, 43.101712684788524]], [[10.537741891810624, 43.10061381097304], [10.537736600376183, 43.10063315179418], [10.53771045448357, 43.10062936105606], [10.537715987102265, 43.10060983690429], [10.537741891810624, 43.10061381097304]]]}}, {"type": "Feature", "properties": {"id": 98, "id_area_stradale": 288, "ac_ped_con": "01", "ac_ped_pos": null, "ac_ped_zon": null, "ac_ped_fon": null, "ac_ped_sed": null, "ac_ped_liv": null, "sopra_a": null, "origine_geometria": null, "codice_ctr": null, "periodizzazione": null}, "geometry": {"type": "Polygon", "coordinates": [[[10.538203413392974, 43.10164774114853], [10.53825286117121, 43.101635687698945], [10.538253823773585, 43.10163545305357], [10.53826078802081, 43.101633652947534], [10.53825996536029, 43.10163176946664], [10.538257717193947, 43.10162662224471], [10.538257866034131, 43.1016263936931], [10.538235432706816, 43.10163171396928], [10.538199749632577, 43.101639667401734], [10.538200940314333, 43.10164229128016], [10.538203413392974, 43.10164774114853]]]}}]}